{
  "type": "FeatureCollection",
  "features": [
    {
      "type": "Feature",
      "properties": {
        "norad_id": 47036,
        "name": "FENGYUN 1C DEB",
        "group": "fengyun-1c-debris",
        "lat": 42.20804311805442,
        "lon": -133.45826905688367,
        "alt_km": 816.0083046764548,
        "timestamp": "2025-12-21T07:34:34.806104+00:00",
        "meta_object_name": "FENGYUN 1C DEB",
        "meta_object_id": "1999-025FBN",
        "meta_epoch": "2025-12-13T21:36:35.845632",
        "meta_mean_motion": 14.15176928,
        "meta_eccentricity": 0.00688587,
        "meta_inclination": 98.7222,
        "meta_ra_of_asc_node": 31.2877,
        "meta_arg_of_pericenter": 94.4248,
        "meta_mean_anomaly": 84.992,
        "meta_ephemeris_type": 0,
        "meta_classification_type": "U",
        "meta_norad_cat_id": 47036,
        "meta_element_set_no": 999,
        "meta_rev_at_epoch": 59943,
        "meta_bstar": 0.0001889836,
        "meta_mean_motion_dot": 3.33e-06,
        "meta_mean_motion_ddot": 0,
        "tle_line1": "1 47036U 99025FBN 25347.90041488  .00000333  00000+0  18898-3 0  9995",
        "tle_line2": "2 47036  98.7222  31.2877 0068858  94.4248  84.9920 14.15176928599432"
      },
      "geometry": {
        "type": "Point",
        "coordinates": [
          -133.45826905688367,
          42.20804311805442
        ]
      }
    },
    {
      "type": "Feature",
      "properties": {
        "norad_id": 47040,
        "name": "FENGYUN 1C DEB",
        "group": "fengyun-1c-debris",
        "lat": 15.835585167546991,
        "lon": -99.70809796397103,
        "alt_km": 916.145608820797,
        "timestamp": "2025-12-21T07:34:34.806113+00:00",
        "meta_object_name": "FENGYUN 1C DEB",
        "meta_object_id": "1999-025FBS",
        "meta_epoch": "2025-12-15T23:27:12.170880",
        "meta_mean_motion": 14.06493473,
        "meta_eccentricity": 0.00627218,
        "meta_inclination": 100.2945,
        "meta_ra_of_asc_node": 257.1831,
        "meta_arg_of_pericenter": 223.9582,
        "meta_mean_anomaly": 135.6583,
        "meta_ephemeris_type": 0,
        "meta_classification_type": "U",
        "meta_norad_cat_id": 47040,
        "meta_element_set_no": 999,
        "meta_rev_at_epoch": 89154,
        "meta_bstar": 0.00050503613,
        "meta_mean_motion_dot": 7.95e-06,
        "meta_mean_motion_ddot": 0,
        "tle_line1": "1 47040U 99025FBS 25349.97722420  .00000795  00000+0  50504-3 0  9993",
        "tle_line2": "2 47040 100.2945 257.1831 0062721 223.9582 135.6583 14.06493473891543"
      },
      "geometry": {
        "type": "Point",
        "coordinates": [
          -99.70809796397103,
          15.835585167546991
        ]
      }
    },
    {
      "type": "Feature",
      "properties": {
        "norad_id": 47041,
        "name": "FENGYUN 1C DEB",
        "group": "fengyun-1c-debris",
        "lat": 15.016100883249328,
        "lon": -155.31216719246663,
        "alt_km": 534.1222630494121,
        "timestamp": "2025-12-21T07:34:34.806122+00:00",
        "meta_object_name": "FENGYUN 1C DEB",
        "meta_object_id": "1999-025FBT",
        "meta_epoch": "2025-12-20T20:28:57.423360",
        "meta_mean_motion": 15.07559157,
        "meta_eccentricity": 0.00151176,
        "meta_inclination": 98.2551,
        "meta_ra_of_asc_node": 21.96,
        "meta_arg_of_pericenter": 159.3194,
        "meta_mean_anomaly": 18.2404,
        "meta_ephemeris_type": 0,
        "meta_classification_type": "U",
        "meta_norad_cat_id": 47041,
        "meta_element_set_no": 999,
        "meta_rev_at_epoch": 71311,
        "meta_bstar": 0.0010651389,
        "meta_mean_motion_dot": 0.00016188,
        "meta_mean_motion_ddot": 0,
        "tle_line1": "1 47041U 99025FBT 25354.85344240  .00016188  00000+0  10651-2 0  9998",
        "tle_line2": "2 47041  98.2551  21.9600 0015117 159.3194  18.2404 15.07559157713110"
      },
      "geometry": {
        "type": "Point",
        "coordinates": [
          -155.31216719246663,
          15.016100883249328
        ]
      }
    },
    {
      "type": "Feature",
      "properties": {
        "norad_id": 47042,
        "name": "FENGYUN 1C DEB",
        "group": "fengyun-1c-debris",
        "lat": 66.20052106688448,
        "lon": 94.07050083675888,
        "alt_km": 817.1695384321692,
        "timestamp": "2025-12-21T07:34:34.806131+00:00",
        "meta_object_name": "FENGYUN 1C DEB",
        "meta_object_id": "1999-025FBU",
        "meta_epoch": "2025-12-19T12:00:36.072000",
        "meta_mean_motion": 14.22844145,
        "meta_eccentricity": 0.0055101,
        "meta_inclination": 99.0013,
        "meta_ra_of_asc_node": 251.153,
        "meta_arg_of_pericenter": 15.4542,
        "meta_mean_anomaly": 162.9996,
        "meta_ephemeris_type": 0,
        "meta_classification_type": "U",
        "meta_norad_cat_id": 47042,
        "meta_element_set_no": 999,
        "meta_rev_at_epoch": 62617,
        "meta_bstar": 0.00020738,
        "meta_mean_motion_dot": 4.26e-06,
        "meta_mean_motion_ddot": 0,
        "tle_line1": "1 47042U 99025FBU 25353.50041750  .00000426  00000+0  20738-3 0  9996",
        "tle_line2": "2 47042  99.0013 251.1530 0055101  15.4542 162.9996 14.22844145626170"
      },
      "geometry": {
        "type": "Point",
        "coordinates": [
          94.07050083675888,
          66.20052106688448
        ]
      }
    },
    {
      "type": "Feature",
      "properties": {
        "norad_id": 47100,
        "name": "FENGYUN 1C DEB",
        "group": "fengyun-1c-debris",
        "lat": 41.21005390330195,
        "lon": 167.47100565866367,
        "alt_km": 699.2664285896244,
        "timestamp": "2025-12-21T07:34:34.806141+00:00",
        "meta_object_name": "FENGYUN 1C DEB",
        "meta_object_id": "1999-025FBY",
        "meta_epoch": "2025-12-19T23:57:11.875104",
        "meta_mean_motion": 14.51522171,
        "meta_eccentricity": 0.00893614,
        "meta_inclination": 99.0201,
        "meta_ra_of_asc_node": 174.0542,
        "meta_arg_of_pericenter": 331.9168,
        "meta_mean_anomaly": 27.722,
        "meta_ephemeris_type": 0,
        "meta_classification_type": "U",
        "meta_norad_cat_id": 47100,
        "meta_element_set_no": 999,
        "meta_rev_at_epoch": 26873,
        "meta_bstar": 0.0012067674,
        "meta_mean_motion_dot": 5.03e-05,
        "meta_mean_motion_ddot": 0,
        "tle_line1": "1 47100U 99025FBY 25353.99805411  .00005030  00000+0  12068-2 0  9998",
        "tle_line2": "2 47100  99.0201 174.0542 0089361 331.9168  27.7220 14.51522171268731"
      },
      "geometry": {
        "type": "Point",
        "coordinates": [
          167.47100565866367,
          41.21005390330195
        ]
      }
    },
    {
      "type": "Feature",
      "properties": {
        "norad_id": 47104,
        "name": "FENGYUN 1C DEB",
        "group": "fengyun-1c-debris",
        "lat": 64.26727804836818,
        "lon": 5.924138302461298,
        "alt_km": 832.673607218374,
        "timestamp": "2025-12-21T07:34:34.806150+00:00",
        "meta_object_name": "FENGYUN 1C DEB",
        "meta_object_id": "1999-025FCC",
        "meta_epoch": "2025-12-20T19:25:32.617920",
        "meta_mean_motion": 14.19434358,
        "meta_eccentricity": 0.00403981,
        "meta_inclination": 98.9084,
        "meta_ra_of_asc_node": 24.4065,
        "meta_arg_of_pericenter": 313.3102,
        "meta_mean_anomaly": 46.4707,
        "meta_ephemeris_type": 0,
        "meta_classification_type": "U",
        "meta_norad_cat_id": 47104,
        "meta_element_set_no": 999,
        "meta_rev_at_epoch": 62487,
        "meta_bstar": 0.00016269056,
        "meta_mean_motion_dot": 2.99e-06,
        "meta_mean_motion_ddot": 0,
        "tle_line1": "1 47104U 99025FCC 25354.80940530  .00000299  00000+0  16269-3 0  9995",
        "tle_line2": "2 47104  98.9084  24.4065 0040398 313.3102  46.4707 14.19434358624871"
      },
      "geometry": {
        "type": "Point",
        "coordinates": [
          5.924138302461298,
          64.26727804836818
        ]
      }
    }
  ]
}